[{"OBJECT_NAME":"ION SCV-004","OBJECT_ID":"2022-002K","EPOCH":"2026-03-09T16:32:03.244416","MEAN_MOTION":15.29369331,"ECCENTRICITY":0.00072157,"INCLINATION":97.2961,"RA_OF_ASC_NODE":128.2294,"ARG_OF_PERICENTER":1.6783,"MEAN_ANOMALY":358.448,"EPHEMERIS_TYPE":0,"CLASSIFICATION_TYPE":"U","NORAD_CAT_ID":50993,"ELEMENT_SET_NO":999,"REV_AT_EPOCH":23008,"BSTAR":0.00023198467,"MEAN_MOTION_DOT":6.538e-5,"MEAN_MOTION_DDOT":0},{"OBJECT_NAME":"STARLINK-31923","OBJECT_ID":"2024-150T","EPOCH":"2026-03-09T21:57:14.995296","MEAN_MOTION":15.3018824,"ECCENTRICITY":0.00012903,"INCLINATION":53.1613,"RA_OF_ASC_NODE":306.1362,"ARG_OF_PERICENTER":107.2908,"MEAN_ANOMALY":252.8234,"EPHEMERIS_TYPE":0,"CLASSIFICATION_TYPE":"U","NORAD_CAT_ID":60600,"ELEMENT_SET_NO":999,"REV_AT_EPOCH":8807,"BSTAR":5.0662897e-5,"MEAN_MOTION_DOT":1.141e-5,"MEAN_MOTION_DDOT":0}]
